H1 CPF 01  gfz 2022 03 18 13  5772 terrasarx 
H2 0702601  6201 31698    2022 03 18 12 59 42 2022 03 23 00 00 42   120 1 1  0 0 0
H9
10 0 59660  65502.000000  0    4057155.013   -900493.808   5483709.474
10 0 59660  65622.000000  0    3278265.842   -958454.142   5971842.132
10 0 59660  65742.000000  0    2441394.607   -985541.492   6354964.001
10 0 59660  65862.000000  0    1561720.040   -980406.299   6626374.786
10 0 59660  65982.000000  0     655172.487   -942532.597   6781333.954
10 0 59660  66102.000000  0    -261857.339   -872256.623   6817137.674
10 0 59660  66222.000000  0   -1172814.365   -770766.299   6733161.687
10 0 59660  66342.000000  0   -2061276.529   -640081.275   6530871.058
10 0 59660  66462.000000  0   -2911249.150   -483013.478   6213796.192
10 0 59660  66582.000000  0   -3707452.842   -303109.052   5787476.412
10 0 59660  66702.000000  0   -4435601.505   -104572.715   5259369.743
10 0 59660  66822.000000  0   -5082664.705    107824.370   4638728.444
10 0 59660  66942.000000  0   -5637108.687    328851.146   3936441.744
10 0 59660  67062.000000  0   -6089110.815    552936.308   3164847.828
10 0 59660  67182.000000  0   -6430743.361    774298.247   2337518.879
10 0 59660  67302.000000  0   -6656122.395    987082.485   1469020.475
10 0 59660  67422.000000  0   -6761517.514   1185502.656    574650.442
10 0 59660  67542.000000  0   -6745418.844   1363982.196   -329838.583
10 0 59660  67662.000000  0   -6608558.042   1517292.676  -1228526.017
10 0 59660  67782.000000  0   -6353883.961   1640684.648  -2105611.787
10 0 59660  67902.000000  0   -5986495.447   1730009.367  -2945701.427
10 0 59660  68022.000000  0   -5513530.313   1781827.213  -3734082.986
10 0 59660  68142.000000  0   -4944014.331   1793499.148  -4456986.568
10 0 59660  68262.000000  0   -4288676.544   1763260.561  -5101822.068
10 0 59660  68382.000000  0   -3559735.799   1690275.799  -5657391.560
10 0 59660  68502.000000  0   -2770665.040   1574672.757  -6114073.991
10 0 59660  68622.000000  0   -1935937.573   1417556.695  -6463981.583
10 0 59660  68742.000000  0   -1070758.894   1221003.943  -6701084.400
10 0 59660  68862.000000  0    -190792.073    988035.005  -6821302.602
10 0 59660  68982.000000  0     688119.439    722568.774  -6822568.218
10 0 59660  69102.000000  0    1550229.460    429358.084  -6704859.029
10 0 59660  69222.000000  0    2380166.051    113906.331  -6470199.232
10 0 59660  69342.000000  0    3163199.609   -217632.487  -6122628.249
10 0 59660  69462.000000  0    3885501.359   -558569.524  -5668138.066
10 0 59660  69582.000000  0    4534385.752   -901810.945  -5114579.594
10 0 59660  69702.000000  0    5098537.022  -1240000.431  -4471539.746
10 0 59660  69822.000000  0    5568214.012  -1565671.877  -3750186.084
10 0 59660  69942.000000  0    5935428.128  -1871408.819  -2963081.902
10 0 59660  70062.000000  0    6194090.748  -2150007.877  -2123973.474
10 0 59660  70182.000000  0    6340125.602  -2394642.395  -1247552.251
10 0 59660  70302.000000  0    6371542.909  -2599021.687   -349196.645
10 0 59660  70422.000000  0    6288473.090  -2757542.459    555302.270
10 0 59660  70542.000000  0    6093158.339  -2865427.854   1450025.490
10 0 59660  70662.000000  0    5789901.300  -2918850.592   2319215.930
10 0 59660  70782.000000  0    5384970.826  -2915037.029   3147564.670
10 0 59660  70902.000000  0    4886468.912  -2852348.628   3920488.508
10 0 59660  71022.000000  0    4304162.168  -2730338.752   4624390.520
10 0 59660  71142.000000  0    3649284.518  -2549785.824   5246901.827
10 0 59660  71262.000000  0    2934311.291  -2312700.484   5777099.357
10 0 59660  71382.000000  0    2172713.866  -2022306.002   6205693.270
10 0 59660  71502.000000  0    1378700.483  -1682994.421   6525184.370
10 0 59660  71622.000000  0     566947.417  -1300258.944   6729989.413
10 0 59660  71742.000000  0    -247674.243   -880603.474   6816532.649
10 0 59660  71862.000000  0   -1050370.665   -431431.058   6783303.503
10 0 59660  71982.000000  0   -1826692.570     39086.466   6630880.983
10 0 59660  72102.000000  0   -2562794.160    522156.692   6361924.352
10 0 59660  72222.000000  0   -3245679.898   1008530.021   5981130.148
10 0 59660  72342.000000  0   -3863435.735   1488675.547   5495155.857
10 0 59660  72462.000000  0   -4405441.621   1952966.969   4912510.240
10 0 59660  72582.000000  0   -4862561.055   2391875.581   4243410.096
10 0 59660  72702.000000  0   -5227302.161   2796166.521   3499604.643
10 0 59660  72822.000000  0   -5493947.523   3157093.094   2694171.316
10 0 59660  72942.000000  0   -5658650.515   3466585.812   1841286.078
10 0 59660  73062.000000  0   -5719495.803   3717432.261    955970.419
10 0 59660  73182.000000  0   -5676519.547   3903441.099     53819.301
10 0 59660  73302.000000  0   -5531690.349   4019586.544   -849281.269
10 0 59660  73422.000000  0   -5288851.730   4062130.403  -1737442.909
10 0 59660  73542.000000  0   -4953626.143   4028717.956  -2595064.340
10 0 59660  73662.000000  0   -4533282.433   3918444.093  -3407112.331
10 0 59660  73782.000000  0   -4036572.565   3731889.354  -4159388.449
10 0 59660  73902.000000  0   -3473542.425   3471126.018  -4838775.839
10 0 59660  74022.000000  0   -2855321.742   3139694.491  -5433462.385
10 0 59660  74142.000000  0   -2193900.377   2742551.901  -5933137.299
10 0 59660  74262.000000  0   -1501892.750   2285993.819  -6329160.834
10 0 59660  74382.000000  0    -792296.151   1777549.988  -6614701.703
10 0 59660  74502.000000  0     -78249.328   1225858.640  -6784843.497
10 0 59660  74622.000000  0     627205.679    640520.176  -6836659.948
10 0 59660  74742.000000  0    1311355.819     31933.448  -6769261.300
10 0 59660  74862.000000  0    1962041.866   -588885.507  -6583807.453
10 0 59660  74982.000000  0    2567868.940  -1210497.652  -6283489.393
10 0 59660  75102.000000  0    3118403.091  -1821246.404  -5873480.423
10 0 59660  75222.000000  0    3604349.915  -2409470.828  -5360856.770
10 0 59660  75342.000000  0    4017715.123  -2963726.671  -4754487.635
10 0 59660  75462.000000  0    4351940.286  -3473009.343  -4064891.200
10 0 59660  75582.000000  0    4602011.908  -3926972.971  -3304062.253
10 0 59660  75702.000000  0    4764543.879  -4316143.358  -2485272.063
10 0 59660  75822.000000  0    4837829.076  -4632119.264  -1622841.037
10 0 59660  75942.000000  0    4821858.495  -4867757.349   -731888.895
10 0 59660  76062.000000  0    4718305.427  -5017335.422    171934.350
10 0 59660  76182.000000  0    4530475.278  -5076688.430   1072729.790
10 0 59660  76302.000000  0    4263222.731  -5043314.133   1954638.217
10 0 59660  76422.000000  0    3922836.005  -4916444.605   2802128.208
10 0 59660  76542.000000  0    3516893.848  -4697083.535   3600277.192
10 0 59660  76662.000000  0    3054097.358  -4388006.867   4335040.714
10 0 59660  76782.000000  0    2544081.759  -3993727.139   4993502.933
10 0 59660  76902.000000  0    1997213.173  -3520423.306   5564103.995
10 0 59660  77022.000000  0    1424374.873  -2975838.114   6036841.187
10 0 59660  77142.000000  0     836747.738  -2369144.677   6403439.246
10 0 59660  77262.000000  0     245590.380  -1710787.301   6657488.753
10 0 59660  77382.000000  0    -337976.762  -1012298.811   6794551.712
10 0 59660  77502.000000  0    -903179.457   -286096.606   6812234.906
10 0 59660  77622.000000  0   -1439787.618    454738.506   6710228.762
10 0 59660  77742.000000  0   -1938299.879   1196697.391   6490312.302
10 0 59660  77862.000000  0   -2390111.745   1926087.939   6156324.046
10 0 59660  77982.000000  0   -2787664.965   2629287.107   5714099.298
10 0 59660  78102.000000  0   -3124575.825   3292996.437   5171374.558
10 0 59660  78222.000000  0   -3395741.195   3904496.123   4537658.617
10 0 59660  78342.000000  0   -3597419.066   4451893.597   3824071.451
10 0 59660  78462.000000  0   -3727281.879   4924361.101   3043152.410
10 0 59660  78582.000000  0   -3784441.143   5312356.902   2208640.065
10 0 59660  78702.000000  0   -3769442.075   5607823.286   1335227.414
10 0 59660  78822.000000  0   -3684228.877   5804357.479    438299.019
10 0 59660  78942.000000  0   -3532082.403   5897352.991   -466346.854
10 0 59660  79062.000000  0   -3317529.150   5884104.408  -1362786.911
10 0 59660  79182.000000  0   -3046224.818   5763872.524  -2235263.660
10 0 59660  79302.000000  0   -2724813.443   5537908.036  -3068470.208
10 0 59660  79422.000000  0   -2360770.105   5209436.460  -3847821.990
10 0 59660  79542.000000  0   -1962230.704   4783603.895  -4559713.283
10 0 59660  79662.000000  0   -1537811.849   4267385.280  -5191750.381
10 0 59660  79782.000000  0   -1096427.332   3669461.058  -5732959.869
10 0 59660  79902.000000  0    -647103.240   3000063.126  -6173971.109
10 0 59660  80022.000000  0    -198795.686   2270792.427  -6507167.963
10 0 59660  80142.000000  0     239783.949   1494414.724  -6726808.064
10 0 59660  80262.000000  0     660333.364    684637.810  -6829112.500
10 0 59660  80382.000000  0    1055112.767   -144127.109  -6812324.038
10 0 59660  80502.000000  0    1417083.655   -977017.303  -6676733.330
10 0 59660  80622.000000  0    1740030.700  -1798978.269  -6424673.001
10 0 59660  80742.000000  0    2018666.630  -2595028.430  -6060482.291
10 0 59660  80862.000000  0    2248718.516  -3350526.715  -5590441.555
10 0 59660  80982.000000  0    2426994.372  -4051441.666  -5022675.537
10 0 59660  81102.000000  0    2551427.945  -4684613.607  -4367022.028
10 0 59660  81222.000000  0    2621100.830  -5238004.358  -3634872.024
10 0 59660  81342.000000  0    2636241.494  -5700933.683  -2838981.857
10 0 59660  81462.000000  0    2598201.185  -6064295.090  -1993256.784
10 0 59660  81582.000000  0    2509406.997  -6320745.950  -1112510.784
10 0 59660  81702.000000  0    2373291.643  -6464866.205   -212204.275
10 0 59660  81822.000000  0    2194200.900  -6493278.499    691833.491
10 0 59660  81942.000000  0    1977282.503  -6404729.522   1583689.417
99
